GNOMES-1                
1 46266U 20059B   26068.53916665  .00004080  00000+0  33422-3 0  9991
2 46266  97.8057 278.7760 0005451 357.8604   2.2595 14.99848479300657
LEMUR-2-STAR-FOX        
1 62696U 25009CR  26068.81264061  .00009785  00000+0  77276-3 0  9995
2 62696  97.7038 151.2547 0002501 152.1910 207.9448 15.00891969 62647
